full_name,epoch_mjd,a,e,i,om,w,ma,n,moid,diameter
"137126 (1999 CF9)",59396,1.772652590556793,.6002146089506443,5.5475467847626,157.0719114049185,90.27667400561234,138.4584659069172,.4176078265668252,.018863,
"137427 (1999 TF211)",59396,2.448913081552381,.6102141110680527,39.33767826155724,347.9778234366959,161.9725040227383,182.4576621289423,.2571840417812385,.0191968,
"138095 (2000 DK79)",59396,1.776689715536208,.4143879850723617,60.67773079869878,43.45756714585742,2.554605930345278,79.02190735539115,.4161852566458098,.0494557,
"138127 (2000 EE14)",59396,.6617864541236513,.5331516147442373,26.46096449979587,155.7561269346132,197.8389862389993,32.24913643081517,1.830742500083576,.0226197,0.754
"138175 (2000 EE104)",59396,1.004145197298101,.2931440845706336,5.238145604670463,25.55214375045106,280.9515598827132,312.954255741604,.9795109621874961,.00848477,
"138404 (2000 HA24)",59396,1.139017276380858,.3185707101831697,2.164837406824845,309.39834047963,142.1413216619903,243.2383599399624,.810790416603985,.0272785,
"138524 (2000 OJ8)",59396,2.356480674168894,.5678426928706212,6.245445040396284,226.598884836819,181.234869354982,240.0889947932274,.2724634492681284,.027922,
"138727 (2000 SU180)",59396,2.106590688491816,.6050519836118385,11.91667739115361,327.9236227975422,136.2674078081017,260.9089212772365,.3223545715223048,.0332823,
"138971 (2001 CB21)",59396,1.034320458580287,.3334037844180286,7.899300177165806,353.722489621365,271.8160399774427,66.93222294202279,.9369607566017694,.0235919,
"139211 (2001 GN2)",59396,1.859510602012128,.4522934941646474,26.06940910875042,173.5569034741396,3.36496863150941,358.9322879472578,.388692432735578,.0253311,
"139359 (2001 ME1)",59396,2.633787656401182,.8699457890908632,5.951275729943013,84.63533609840171,302.2885065433546,221.2015163848412,.2305860007105474,.0131034,
"139622 (2001 QQ142)",59396,1.422677327617505,.3111589684780357,9.316512673672191,83.26208738935848,337.9062690330528,211.0989755970063,.5808238727106042,.0116071,
"140039 (2001 SO73)",59396,1.820276328401855,.5687810732806544,4.855364797334083,197.200028222756,30.89727797987378,99.84093161142246,.401326734928525,.0459235,
"140158 (2001 SX169)",59396,1.347232081065604,.4609526110090033,2.517577292381779,126.8049408128115,42.66224891040157,55.65320934399477,.6302900481617053,.0261161,0.566
"140288 (2001 SN289)",59396,1.783878803538824,.5077596410738731,53.22590194700335,357.096251565747,225.6016940519457,206.5431329361779,.4136719334769441,.0167086,1.263
"141053 (2001 XT1)",59396,1.528673625184743,.5795806811836134,2.731354933009398,316.2497313062125,31.32934856212757,160.0149544628323,.52147310552425,.0412821,
"141432 (2002 CQ11)",59396,.9762365934324784,.4275943873269012,2.467180006137973,81.34513221634279,272.6278651658225,91.45921797206493,1.021813061199257,.019545,0.239
"141495 (2002 EZ11)",59396,1.114098331791243,.8021320147023282,2.354459991313207,51.90864071501836,317.7426621733089,265.6622276185013,.8381442848685287,.000952549,
"141525 (2002 FV5)",59396,1.08695764975217,.7246462029224622,34.03402296583543,38.85115826496023,308.0967060746882,284.0171760812691,.8697313782376802,.0352842,
"141527 (2002 FG7)",59396,1.51344406684882,.6267209336090753,9.202959037824595,187.4971689358712,247.680639688087,165.232843226642,.5293641315310362,.0414614,
"141593 (2002 HK12)",59396,2.001762443226287,.5289579601149652,2.349516549410916,307.0066817659838,2.252635652476087,242.064243436475,.3480048276388734,.0239178,
"141614 (2002 JV15)",59396,1.623714553307865,.536389627165288,7.185142904317905,200.6324604456874,127.3721142050728,55.54231292634551,.4763646752855143,.0395997,
"141851 (2002 PM6)",59396,1.198050499225959,.8502310334661667,19.16886634313189,304.1129277413863,224.4149412018991,186.0967541766931,.751607988220327,.0381063,
"143404 (2003 BD44)",59396,1.968122774173422,.6062843185957821,2.662573071536381,181.2768139943217,89.28633238278303,172.6507054877179,.3569651294824779,.0179323,
"143487 (2003 CR20)",59396,2.12520919458798,.7296071376728717,4.989199505510973,177.085686222821,88.83714922179945,306.5921277961186,.3181277432108084,.00050579,
"143624 (2003 HM16)",59396,1.966740916517936,.5762285741250968,35.59457794538714,195.9491670015088,47.03711158815599,192.6742204081137,.3573414080466607,.0499167,2.137
"143649 (2003 QQ47)",59396,1.085394458277671,.1869645336414576,62.10056743904779,.9906709482574736,104.9700379824329,204.5959329975113,.8716109429316053,.00344301,
"143651 (2003 QO104)",59396,2.135700489377659,.5240719821584201,11.60200901938743,58.21672149998787,183.5553972062534,315.0617847848906,.3157864951535919,.00561135,
"143992 (2004 AF)",59396,1.971205496119493,.5537692706891744,27.13740573045716,315.6490962041137,57.92190675119613,136.5302762631228,.356128082890914,.0331322,
"144332 (2004 DV24)",59396,1.422966419900477,.2897939935974383,55.89556732591313,171.1358507334526,186.3854197423957,227.333232005694,.5806468799491209,.00584169,
"144898 (2004 VD17)",59396,1.507775509410934,.5888514748997651,4.22417416833743,224.0032933938418,90.9583336247111,25.34193646508307,.5323521919729525,.00163649,
"144900 (2004 VG64)",59396,.9683338576248298,.6555353613735521,36.25467560782315,208.8617302276961,43.92536751434513,224.2926844481831,1.034347331063599,.0280147,
"152560 (1991 BN)",59396,1.443317102171266,.3980848240483004,3.445539703762186,268.8544274122161,80.9135166507491,292.238781437887,.5684096433614514,.0206973,
"152561 (1991 RB)",59396,1.454525694136557,.485497776915465,19.57711628275677,359.3016615392331,68.94414930741885,323.3049765744228,.56185206027162,.038353,
"152637 (1997 NC1)",59396,.8650667228401687,.2082139806546137,16.7248927873134,96.49467554072365,16.60054171376231,80.53339636957558,1.224981880673147,.0167139,
"152664 (1998 FW4)",59396,2.52759469424663,.7138665803060841,3.422993480998248,353.680722719621,85.37558776997136,328.4742060989861,.2452691473570832,.015269,
"152671 (1998 HL3)",59396,1.128833317550434,.3660350625550328,2.679797995152679,163.671463266929,188.1284104844617,16.99977570492466,.8217871483053337,.0453808,0.298
"152680 (1998 KJ9)",59396,1.447788321851686,.6397399341400842,10.9307905738063,98.57919694453618,260.0566049959588,55.49755445313735,.5657785393064209,.00560935,
"152685 (1998 MZ)",59396,1.346485706898249,.573363674217952,.1465244198339274,121.7625181211529,39.75498159951779,309.5658477090278,.6308141874746191,.0015872,
"152754 (1999 GS6)",59396,1.191169290648743,.4974004200686727,2.020588792666425,314.4425989505629,134.9556936041869,90.60987369129799,.7581302772365702,.0188899,0.414
"152770 (1999 RR28)",59396,1.877744701606276,.6544817201688609,7.139756260319891,178.2096535579611,284.5605414799415,130.9585396930225,.3830445222579745,.016513,
"152828 (1999 VT25)",59396,1.162134927736043,.5231622815115258,5.148721797275061,221.9868970678038,319.1530575272318,26.6067160102129,.7867182825735217,.0482107,
"152978 (2000 GJ147)",59396,1.162249103251084,.2366923705702943,25.00596013515148,57.8580935030483,240.8074623270311,266.9295271929881,.7866023585102351,.0251752,0.531
"153002 (2000 JG5)",59396,1.340637987018377,.7958587270349711,31.42538172146816,213.0530356935818,233.4493738943293,263.0370948841637,.6349460012219329,.0287099,
"153201 (2000 WO107)",59396,.9111903866301965,.7807405933336142,7.770453622870081,69.23049637186696,213.7188151952575,295.0963632643575,1.133157767712456,.00301578,0.510
"153220 (2000 YN29)",59396,2.522830060941339,.6757570170962909,5.878063703642692,67.87436775505687,138.1443473960926,357.5424169281241,.2459643006835902,.0295556,
"153311 (2001 MG1)",59396,2.500166473732091,.6461962702517118,28.42652056282607,142.3753126942515,218.4377366270752,4.255485586440163,.2493163057846158,.0405215,
"153591 (2001 SN263)",59396,1.985723860825732,.4795877315240313,6.695710494520776,325.7590143741221,173.0334687896442,279.6334918724294,.3522295535413683,.0481126,2
"153814 (2001 WN5)",59396,1.711571137172417,.467185959646213,1.91893538715389,277.4225244476339,44.60379261790023,300.5987399744145,.4401610839790683,.00169186,0.932
"153958 (2002 AM31)",59396,1.703028662304868,.4516439938306602,4.644965815561885,144.3802385535279,197.9295545892256,353.0169119236265,.443477037768115,.0318225,
"154019 (2002 CZ9)",59396,1.325435220739399,.360138850867096,4.971568339045983,142.8788810318345,80.81264813253006,206.9284571550212,.6459015303798696,.025661,
"154269 (2002 SM)",59396,1.871507279931498,.4861398558574818,14.42677347287907,10.8889196800391,217.2350610506697,197.0902286047777,.3849610521880788,.0238059,
"154275 (2002 SR41)",59396,1.083379597243573,.490800862419088,11.57724855565984,247.8151101833945,258.1522491753328,147.5466738700498,.8740435960951529,.035969,
"154276 (2002 SY50)",59396,1.704223046202855,.6895758819198868,8.739545954191803,34.20141061881432,99.5016262719641,115.0007133141056,.4430109112671435,.00298869,1.060
"154302 (2002 UQ3)",59396,1.719435884199103,.561930874689867,28.81655147796319,222.7934148067067,280.8920874130202,64.26081074616847,.4371445766082295,.0392115,
"154330 (2002 VX94)",59396,1.476680144560523,.4086965649885992,7.16170898556648,320.1101765701971,215.1158786323247,52.20969119234245,.54925550804019,.0324971,
"154590 (2003 MA3)",59396,1.105177221310294,.4021304547433693,1.415763953953926,152.6706450545148,228.8547361599627,115.6369975671843,.8483131245737301,.0131329,0.086
"155338 (2006 MZ1)",59396,1.569284064703673,.4825737483238193,2.082091686134605,226.6237787180442,138.6288437322794,197.5032222120259,.5013623609375435,.0129481,
"159504 (2000 WO67)",59396,2.434555151691842,.6172688080815314,9.690895203713819,107.604239308276,237.7604611025789,186.4150959482285,.2594625295778863,.049423,2.324
"159857 (2004 LJ1)",59396,2.263066229558312,.5937792278360139,23.14375382976505,235.575301155643,139.9480829663857,330.8920083806954,.2895064060243859,.0155505,3.070
"161989 Cacus (1978 CA)",59396,1.1231384173479,.2139762729726358,26.06160031450061,161.2291587160447,102.2014198988359,61.33657887004412,.8280454018232684,.0148819,1.9
